{
  "type": "FeatureCollection",
  "features": [
    {
      "type": "Feature",
      "properties": {
        "norad_id": 46430,
        "name": "COSMOS 2251 DEB",
        "group": "cosmos-2251-debris",
        "lat": -13.17528022129981,
        "lon": 1.8764479266005982,
        "alt_km": 688.5680132372054,
        "timestamp": "2025-12-07T18:50:17.113304+00:00",
        "meta_object_name": "COSMOS 2251 DEB",
        "meta_object_id": "1993-036BWU",
        "meta_epoch": "2025-12-03T09:00:26.936928",
        "meta_mean_motion": 14.51043928,
        "meta_eccentricity": 0.01031866,
        "meta_inclination": 73.9151,
        "meta_ra_of_asc_node": 14.104,
        "meta_arg_of_pericenter": 295.9829,
        "meta_mean_anomaly": 63.073,
        "meta_ephemeris_type": 0,
        "meta_classification_type": "U",
        "meta_norad_cat_id": 46430,
        "meta_element_set_no": 999,
        "meta_rev_at_epoch": 79547,
        "meta_bstar": 0.0030362826,
        "meta_mean_motion_dot": 0.00012872,
        "meta_mean_motion_ddot": 0,
        "tle_line1": "1 46430U 93036BWU 25337.37531177  .00012872  00000+0  30363-2 0  9998",
        "tle_line2": "2 46430  73.9151  14.1040 0103186 295.9829  63.0730 14.51043928795476"
      },
      "geometry": {
        "type": "Point",
        "coordinates": [
          1.8764479266005982,
          -13.17528022129981
        ]
      }
    },
    {
      "type": "Feature",
      "properties": {
        "norad_id": 46432,
        "name": "COSMOS 2251 DEB",
        "group": "cosmos-2251-debris",
        "lat": -0.35465349835422616,
        "lon": 118.99879434347002,
        "alt_km": 1302.2396722434796,
        "timestamp": "2025-12-07T18:50:17.113314+00:00",
        "meta_object_name": "COSMOS 2251 DEB",
        "meta_object_id": "1993-036BWW",
        "meta_epoch": "2025-12-06T16:01:31.706976",
        "meta_mean_motion": 13.3661688,
        "meta_eccentricity": 0.04737874,
        "meta_inclination": 73.8715,
        "meta_ra_of_asc_node": 120.8611,
        "meta_arg_of_pericenter": 239.3402,
        "meta_mean_anomaly": 141.9377,
        "meta_ephemeris_type": 0,
        "meta_classification_type": "U",
        "meta_norad_cat_id": 46432,
        "meta_element_set_no": 999,
        "meta_rev_at_epoch": 66885,
        "meta_bstar": 0.0019683261,
        "meta_mean_motion_dot": 1.915e-05,
        "meta_mean_motion_ddot": 0,
        "tle_line1": "1 46432U 93036BWW 25340.66772809  .00001915  00000+0  19683-2 0  9993",
        "tle_line2": "2 46432  73.8715 120.8611 0473787 239.3402 141.9377 13.36616880668857"
      },
      "geometry": {
        "type": "Point",
        "coordinates": [
          118.99879434347002,
          -0.35465349835422616
        ]
      }
    },
    {
      "type": "Feature",
      "properties": {
        "norad_id": 47045,
        "name": "COSMOS 2251 DEB",
        "group": "cosmos-2251-debris",
        "lat": 15.94710142966286,
        "lon": 162.97735597875348,
        "alt_km": 757.4528888320856,
        "timestamp": "2025-12-07T18:50:17.113325+00:00",
        "meta_object_name": "COSMOS 2251 DEB",
        "meta_object_id": "1993-036BWZ",
        "meta_epoch": "2025-12-07T06:15:15.521184",
        "meta_mean_motion": 14.38895318,
        "meta_eccentricity": 0.00302399,
        "meta_inclination": 74.0571,
        "meta_ra_of_asc_node": 159.2576,
        "meta_arg_of_pericenter": 301.093,
        "meta_mean_anomaly": 240.3675,
        "meta_ephemeris_type": 0,
        "meta_classification_type": "U",
        "meta_norad_cat_id": 47045,
        "meta_element_set_no": 999,
        "meta_rev_at_epoch": 7726,
        "meta_bstar": 0.00014314091,
        "meta_mean_motion_dot": 4.17e-06,
        "meta_mean_motion_ddot": 0,
        "tle_line1": "1 47045U 93036BWZ 25341.26059631  .00000417  00000+0  14314-3 0  9995",
        "tle_line2": "2 47045  74.0571 159.2576 0030239 301.0930 240.3675 14.38895318 77263"
      },
      "geometry": {
        "type": "Point",
        "coordinates": [
          162.97735597875348,
          15.94710142966286
        ]
      }
    },
    {
      "type": "Feature",
      "properties": {
        "norad_id": 47048,
        "name": "COSMOS 2251 DEB",
        "group": "cosmos-2251-debris",
        "lat": 58.605634221558475,
        "lon": -3.3489352774090926,
        "alt_km": 719.4807233676493,
        "timestamp": "2025-12-07T18:50:17.113334+00:00",
        "meta_object_name": "COSMOS 2251 DEB",
        "meta_object_id": "1993-036BXC",
        "meta_epoch": "2025-12-07T07:15:38.269728",
        "meta_mean_motion": 14.52229932,
        "meta_eccentricity": 0.0133232,
        "meta_inclination": 73.9782,
        "meta_ra_of_asc_node": 329.4737,
        "meta_arg_of_pericenter": 158.8085,
        "meta_mean_anomaly": 264.4528,
        "meta_ephemeris_type": 0,
        "meta_classification_type": "U",
        "meta_norad_cat_id": 47048,
        "meta_element_set_no": 999,
        "meta_rev_at_epoch": 59611,
        "meta_bstar": 0.0016547605,
        "meta_mean_motion_dot": 7.524e-05,
        "meta_mean_motion_ddot": 0,
        "tle_line1": "1 47048U 93036BXC 25341.30252627  .00007524  00000+0  16548-2 0  9999",
        "tle_line2": "2 47048  73.9782 329.4737 0133232 158.8085 264.4528 14.52229932596117"
      },
      "geometry": {
        "type": "Point",
        "coordinates": [
          -3.3489352774090926,
          58.605634221558475
        ]
      }
    },
    {
      "type": "Feature",
      "properties": {
        "norad_id": 47051,
        "name": "COSMOS 2251 DEB",
        "group": "cosmos-2251-debris",
        "lat": 66.98107736314184,
        "lon": -30.44120465412676,
        "alt_km": 1240.0568107968393,
        "timestamp": "2025-12-07T18:50:17.113344+00:00",
        "meta_object_name": "COSMOS 2251 DEB",
        "meta_object_id": "1993-036BXF",
        "meta_epoch": "2025-12-01T21:55:10.667424",
        "meta_mean_motion": 13.67061051,
        "meta_eccentricity": 0.03413205,
        "meta_inclination": 74.1012,
        "meta_ra_of_asc_node": 201.2803,
        "meta_arg_of_pericenter": 317.1785,
        "meta_mean_anomaly": 62.4119,
        "meta_ephemeris_type": 0,
        "meta_classification_type": "U",
        "meta_norad_cat_id": 47051,
        "meta_element_set_no": 999,
        "meta_rev_at_epoch": 59790,
        "meta_bstar": 0.0015947644,
        "meta_mean_motion_dot": 1.973e-05,
        "meta_mean_motion_ddot": 0,
        "tle_line1": "1 47051U 93036BXF 25335.91331791  .00001973  00000+0  15948-2 0  9998",
        "tle_line2": "2 47051  74.1012 201.2803 0341320 317.1785  62.4119 13.67061051597908"
      },
      "geometry": {
        "type": "Point",
        "coordinates": [
          -30.44120465412676,
          66.98107736314184
        ]
      }
    },
    {
      "type": "Feature",
      "properties": {
        "norad_id": 47052,
        "name": "COSMOS 2251 DEB",
        "group": "cosmos-2251-debris",
        "lat": 27.60467172554053,
        "lon": -1.9888139581037894,
        "alt_km": 738.5658254559758,
        "timestamp": "2025-12-07T18:50:17.113375+00:00",
        "meta_object_name": "COSMOS 2251 DEB",
        "meta_object_id": "1993-036BXG",
        "meta_epoch": "2025-12-05T19:01:13.155168",
        "meta_mean_motion": 14.35464627,
        "meta_eccentricity": 0.00577854,
        "meta_inclination": 74.049,
        "meta_ra_of_asc_node": 353.0607,
        "meta_arg_of_pericenter": 69.2726,
        "meta_mean_anomaly": 108.045,
        "meta_ephemeris_type": 0,
        "meta_classification_type": "U",
        "meta_norad_cat_id": 47052,
        "meta_element_set_no": 999,
        "meta_rev_at_epoch": 61689,
        "meta_bstar": 0.00041416194,
        "meta_mean_motion_dot": 1.188e-05,
        "meta_mean_motion_ddot": 0,
        "tle_line1": "1 47052U 93036BXG 25339.79251337  .00001188  00000+0  41416-3 0  9994",
        "tle_line2": "2 47052  74.0490 353.0607 0057785  69.2726 108.0450 14.35464627616892"
      },
      "geometry": {
        "type": "Point",
        "coordinates": [
          -1.9888139581037894,
          27.60467172554053
        ]
      }
    },
    {
      "type": "Feature",
      "properties": {
        "norad_id": 47053,
        "name": "COSMOS 2251 DEB",
        "group": "cosmos-2251-debris",
        "lat": 66.00866381098025,
        "lon": -57.969138344217804,
        "alt_km": 752.4684192005798,
        "timestamp": "2025-12-07T18:50:17.113387+00:00",
        "meta_object_name": "COSMOS 2251 DEB",
        "meta_object_id": "1993-036BXH",
        "meta_epoch": "2025-12-02T02:37:04.787616",
        "meta_mean_motion": 13.59615746,
        "meta_eccentricity": 0.03758539,
        "meta_inclination": 74.0601,
        "meta_ra_of_asc_node": 271.2609,
        "meta_arg_of_pericenter": 87.2254,
        "meta_mean_anomaly": 294.2026,
        "meta_ephemeris_type": 0,
        "meta_classification_type": "U",
        "meta_norad_cat_id": 47053,
        "meta_element_set_no": 999,
        "meta_rev_at_epoch": 28744,
        "meta_bstar": 0.0013831144,
        "meta_mean_motion_dot": 1.616e-05,
        "meta_mean_motion_ddot": 0,
        "tle_line1": "1 47053U 93036BXH 25336.10908319  .00001616  00000+0  13831-2 0  9991",
        "tle_line2": "2 47053  74.0601 271.2609 0375853  87.2254 294.2026 13.59615746287442"
      },
      "geometry": {
        "type": "Point",
        "coordinates": [
          -57.969138344217804,
          66.00866381098025
        ]
      }
    }
  ]
}